ONEWEB-0665             
1 55825U 23029AF  24330.25404290  .00000098  00000+0  22952-3 0  9998
2 55825  87.9027  42.8581 0001824  89.0540 271.0798 13.14504713 84666
ONEWEB-0666             
1 55826U 23029AG  24330.17590341 -.00000055  00000+0 -16742-3 0  9998
2 55826  87.9281  27.6812 0001967 110.0148 250.1197 13.20771860 86045
ONEWEB-0667             
1 55827U 23029AH  24330.54835938  .00000166  00000+0  37677-3 0  9995
2 55827  87.9282  27.5407 0002060  94.7303 265.4065 13.20769686 86082
ONEWEB-0669             
1 55828U 23029AJ  24330.24059794  .00000128  00000+0  28255-3 0  9991
2 55828  87.9280  27.6382 0002533 113.8328 246.3071 13.20769747 86048
ONEWEB-0670             
1 55829U 23029AK  24330.61243488 -.00000099  00000+0 -30198-3 0  9996
2 55829  87.9037  42.7987 0002191  92.8547 267.2833 13.14501398 84738
ONEWEB-0671             
1 55830U 23029AL  24330.28591171  .00000128  00000+0  28631-3 0  9996
2 55830  87.9191  58.1049 0001995  90.6719 269.4643 13.19722053 83863
ONEWEB-0672             
1 55831U 23029AM  24330.69040108 -.00000011  00000+0 -57826-4 0  9993
2 55831  87.9280  27.5334 0001828 109.8302 250.3028 13.20773845 86783
ONEWEB-0673             
1 55832U 23029AN  24330.86876752 -.00000108  00000+0 -30172-3 0  9996
2 55832  87.9192  57.9553 0001598  94.0878 266.0438 13.19724318 83946
